OBJECT_NAME,OBJECT_ID,EPOCH,MEAN_MOTION,ECCENTRICITY,INCLINATION,RA_OF_ASC_NODE,ARG_OF_PERICENTER,MEAN_ANOMALY,EPHEMERIS_TYPE,CLASSIFICATION_TYPE,NORAD_CAT_ID,ELEMENT_SET_NO,REV_AT_EPOCH,BSTAR,MEAN_MOTION_DOT,MEAN_MOTION_DDOT
UPMSAT-2,2020-061E,2024-07-07T16:57:32.726592,15.34740162,.000238,97.2962,255.7244,89.5792,270.5725,0,U,46276,999,21332,.45651E-3,.15308E-3,0
NEMO-HD,2020-061F,2024-07-08T04:11:26.975328,15.26603146,.0002981,97.2958,252.3956,86.1919,273.9661,0,U,46277,999,21314,.27384E-3,.71E-4,0
SIMBA,2020-061H,2024-07-08T04:44:33.103968,15.70439577,.0004577,97.3429,264.4727,193.4722,166.6419,0,U,46279,999,21323,.15277E-2,.190578E-2,0
TRISAT,2020-061J,2024-07-07T12:26:52.712160,15.55108873,.0003865,97.3323,260.5508,137.8717,222.2835,0,U,46280,999,21298,.11145E-2,.75527E-3,0
DIDO 3,2020-061N,2024-07-07T04:14:27.136608,15.35015628,.000419,97.3472,254.9381,137.1642,222.9928,0,U,46284,999,21250,.587E-3,.19894E-3,0
FLOCK 4V-14,2020-061Q,2024-07-08T04:39:48.889440,15.46408791,.0003776,97.3530,264.1929,140.0037,220.1491,0,U,46286,999,21321,.69758E-3,.34529E-3,0
AMICALSAT,2020-061R,2024-07-07T17:36:45.927360,15.38820137,.0003326,97.3480,257.0224,143.2329,216.9145,0,U,46287,999,21272,.85699E-3,.32921E-3,0
3CAT-5A,2020-061W,2024-07-07T03:16:53.578272,15.22052644,.0004371,97.3472,249.5647,127.9246,232.2386,0,U,46292,999,21216,.33826E-3,.767E-4,0
3CAT-5B,2020-061X,2024-07-07T02:59:28.354272,15.22215612,.0004348,97.3478,249.8651,126.2197,233.9442,0,U,46293,999,21215,.34197E-3,.7793E-4,0
OSM-1 CICERO,2020-061Y,2024-07-07T04:13:16.880448,15.32180899,.0004123,97.3493,254.9295,120.1274,240.0377,0,U,46294,999,21251,.5575E-3,.17268E-3,0
FLOCK 4V-10,2020-061AA,2024-07-07T18:01:00.777216,15.50468915,.0003685,97.3540,263.9672,239.4292,120.6596,0,U,46296,999,21311,.27363E-2,.158762E-2,0
FLOCK 4V-13,2020-061AB,2024-07-07T19:17:40.329600,15.44821507,.0002204,97.3523,263.6945,129.6117,230.5327,0,U,46297,999,21308,.72073E-3,.33788E-3,0
TTU100,2020-061AS,2024-07-08T04:22:01.985952,15.73487722,.00033,97.3494,267.8408,213.4918,146.6138,0,U,46312,999,21340,.14998E-2,.213148E-2,0
KEPLER-2 (TARS),2020-061AZ,2024-07-07T04:21:59.654880,15.42409973,.0002054,97.3507,259.6805,112.6605,247.4860,0,U,46319,999,21284,.85325E-3,.36912E-3,0
NAPA-1,2020-061BA,2024-07-08T04:00:41.507712,15.23793490,.0003487,97.3528,253.1605,80.0924,280.0707,0,U,46320,999,21249,.2382E-3,.5665E-4,0
JILIN-1 GAOFEN 3B,2020-065A,2024-07-08T04:17:50.885952,15.26977092,.0012112,97.3385,234.7244,136.6921,223.5272,0,U,46454,999,21063,.54491E-3,.14401E-3,0
JILIN-1 GAOFEN 3E,2020-065D,2024-07-08T04:55:45.598368,15.26727249,.0010624,97.3395,234.8289,153.6960,206.4820,0,U,46457,999,21063,.57184E-3,.14996E-3,0
JILIN-1 GAOFEN 3F,2020-065E,2024-07-08T04:17:40.885152,15.26749912,.00112,97.3327,233.6077,144.0394,216.1601,0,U,46458,999,21063,.54211E-3,.14223E-3,0
JILIN-1 GAOFEN 3G,2020-065F,2024-07-08T03:42:12.352896,15.26865476,.0011783,97.3445,235.8926,149.7431,210.4491,0,U,46459,999,21063,.55343E-3,.14576E-3,0
JILIN-1 GAOFEN 3H,2020-065G,2024-07-08T04:58:00.649344,15.26515892,.0011246,97.3339,233.8091,146.5542,213.6409,0,U,46460,999,21063,.55561E-3,.14477E-3,0
JILIN-1 GAOFEN 3J,2020-065J,2024-07-08T01:30:14.138496,15.26939048,.0010928,97.3381,234.6784,144.2337,215.9636,0,U,46462,999,21062,.5726E-3,.15114E-3,0
HAIYANG-2C,2020-066A,2024-07-08T04:06:10.683936,13.83371958,.0010163,65.9945,180.5763,240.4571,119.5485,0,U,46469,999,19171,.4532E-4,-.31E-6,0
HJ-2A,2020-067A,2024-07-08T04:21:14.320800,14.76574572,.0002018,97.9410,271.8229,59.4778,300.6631,0,U,46478,999,20363,.18622E-3,.1249E-4,0
HJ-2B,2020-067B,2024-07-08T05:12:24.294240,14.76568275,.0001866,97.9452,272.4312,126.5157,233.6225,0,U,46479,999,20364,.17195E-3,.1149E-4,0
GONETS-M 17,2020-068A,2024-07-08T04:27:20.193696,12.42871978,.0023159,82.4967,68.5572,139.0841,221.1982,0,U,46486,999,17127,.37039E-3,.61E-6,0
GONETS-M 18,2020-068B,2024-07-08T03:38:07.335456,12.42890824,.0020534,82.4921,67.9672,135.2591,225.0149,0,U,46487,999,17126,.49172E-3,.78E-6,0
GONETS-M 19,2020-068C,2024-07-08T01:06:53.569440,12.42885986,.0013941,82.4946,68.3372,149.3814,210.8082,0,U,46488,999,17126,.37754E-3,.62E-6,0
MEZNSAT,2020-068D,2024-07-07T21:29:40.882848,15.27741690,.0010024,97.8102,156.7703,207.6467,152.4239,0,U,46489,999,20793,.74564E-3,.20191E-3,0
YARILO 1,2020-068E,2024-07-07T20:30:16.866432,15.30613472,.0009604,97.8116,157.9985,202.5047,157.5772,0,U,46490,999,20800,.96853E-3,.28697E-3,0
YARILO 2,2020-068F,2024-07-07T10:04:09.256512,15.30683166,.0009304,97.8092,157.2228,206.7261,153.3501,0,U,46491,999,20791,.82158E-3,.24367E-3,0
LACUNASAT-3,2020-068G,2024-07-07T20:41:58.831872,15.32889314,.0008954,97.8084,158.6730,199.0505,161.0403,0,U,46492,999,20803,.91226E-3,.29008E-3,0
