UPMSAT-2                
1 46276U 20061E   24189.70662878  .00015308  00000+0  45651-3 0  9992
2 46276  97.2962 255.7244 0002380  89.5792 270.5725 15.34740162213326
NEMO-HD                 
1 46277U 20061F   24190.17461777  .00007100  00000+0  27384-3 0  9995
2 46277  97.2958 252.3956 0002981  86.1919 273.9661 15.26603146213143
SIMBA                   
1 46279U 20061H   24190.19760537  .00190578  00000+0  15277-2 0  9994
2 46279  97.3429 264.4727 0004577 193.4722 166.6419 15.70439577213239
TRISAT                  
1 46280U 20061J   24189.51866565  .00075527  00000+0  11145-2 0  9994
2 46280  97.3323 260.5508 0003865 137.8717 222.2835 15.55108873212980
DIDO 3                  
1 46284U 20061N   24189.17670297  .00019894  00000+0  58700-3 0  9999
2 46284  97.3472 254.9381 0004190 137.1642 222.9928 15.35015628212508
FLOCK 4V-14             
1 46286U 20061Q   24190.19431585  .00034529  00000+0  69758-3 0  9997
2 46286  97.3530 264.1929 0003776 140.0037 220.1491 15.46408791213219
AMICALSAT               
1 46287U 20061R   24189.73386490  .00032921  00000+0  85699-3 0  9996
2 46287  97.3480 257.0224 0003326 143.2329 216.9145 15.38820137212720
3CAT-5A                 
1 46292U 20061W   24189.13673123  .00007670  00000+0  33826-3 0  9996
2 46292  97.3472 249.5647 0004371 127.9246 232.2386 15.22052644212169
3CAT-5B                 
1 46293U 20061X   24189.12463373  .00007793  00000+0  34197-3 0  9998
2 46293  97.3478 249.8651 0004348 126.2197 233.9442 15.22215612212151
OSM-1 CICERO            
1 46294U 20061Y   24189.17588982  .00017268  00000+0  55750-3 0  9994
2 46294  97.3493 254.9295 0004123 120.1274 240.0377 15.32180899212515
FLOCK 4V-10             
1 46296U 20061AA  24189.75070344  .00158762  00000+0  27363-2 0  9991
2 46296  97.3540 263.9672 0003685 239.4292 120.6596 15.50468915213116
FLOCK 4V-13             
1 46297U 20061AB  24189.80393900  .00033788  00000+0  72073-3 0  9993
2 46297  97.3523 263.6945 0002204 129.6117 230.5327 15.44821507213082
TTU100                  
1 46312U 20061AS  24190.18196743  .00213148  00000+0  14998-2 0  9991
2 46312  97.3494 267.8408 0003300 213.4918 146.6138 15.73487722213408
KEPLER-2 (TARS)         
1 46319U 20061AZ  24189.18194045  .00036912  00000+0  85325-3 0  9994
2 46319  97.3507 259.6805 0002054 112.6605 247.4860 15.42409973212845
NAPA-1                  
1 46320U 20061BA  24190.16714708  .00005665  00000+0  23820-3 0  9993
2 46320  97.3528 253.1605 0003487  80.0924 280.0707 15.23793490212493
JILIN-1 GAOFEN 3B       
1 46454U 20065A   24190.17906118  .00014401  00000+0  54491-3 0  9990
2 46454  97.3385 234.7244 0012112 136.6921 223.5272 15.26977092210634
JILIN-1 GAOFEN 3E       
1 46457U 20065D   24190.20538887  .00014996  00000+0  57184-3 0  9992
2 46457  97.3395 234.8289 0010624 153.6960 206.4820 15.26727249210632
JILIN-1 GAOFEN 3F       
1 46458U 20065E   24190.17894543  .00014223  00000+0  54211-3 0  9994
2 46458  97.3327 233.6077 0011200 144.0394 216.1601 15.26749912210632
JILIN-1 GAOFEN 3G       
1 46459U 20065F   24190.15430964  .00014576  00000+0  55343-3 0  9994
2 46459  97.3445 235.8926 0011783 149.7431 210.4491 15.26865476210639
JILIN-1 GAOFEN 3H       
1 46460U 20065G   24190.20695196  .00014477  00000+0  55561-3 0  9994
2 46460  97.3339 233.8091 0011246 146.5542 213.6409 15.26515892210634
JILIN-1 GAOFEN 3J       
1 46462U 20065J   24190.06266364  .00015114  00000+0  57260-3 0  9998
2 46462  97.3381 234.6784 0010928 144.2337 215.9636 15.26939048210623
HAIYANG-2C              
1 46469U 20066A   24190.17095699 -.00000031  00000+0  45320-4 0  9997
2 46469  65.9945 180.5763 0010163 240.4571 119.5485 13.83371958191713
HJ-2A                   
1 46478U 20067A   24190.18141575  .00001249  00000+0  18622-3 0  9999
2 46478  97.9410 271.8229 0002018  59.4778 300.6631 14.76574572203634
HJ-2B                   
1 46479U 20067B   24190.21694785  .00001149  00000+0  17195-3 0  9993
2 46479  97.9452 272.4312 0001866 126.5157 233.6225 14.76568275203646
GONETS-M 17             
1 46486U 20068A   24190.18565039  .00000061  00000+0  37039-3 0  9998
2 46486  82.4967  68.5572 0023159 139.0841 221.1982 12.42871978171277
GONETS-M 18             
1 46487U 20068B   24190.15147379  .00000078  00000+0  49172-3 0  9998
2 46487  82.4921  67.9672 0020534 135.2591 225.0149 12.42890824171264
GONETS-M 19             
1 46488U 20068C   24190.04645335  .00000062  00000+0  37754-3 0  9998
2 46488  82.4946  68.3372 0013941 149.3814 210.8082 12.42885986171263
MEZNSAT                 
1 46489U 20068D   24189.89561207  .00020191  00000+0  74564-3 0  9990
2 46489  97.8102 156.7703 0010024 207.6467 152.4239 15.27741690207937
YARILO 1                
1 46490U 20068E   24189.85436188  .00028697  00000+0  96853-3 0  9991
2 46490  97.8116 157.9985 0009604 202.5047 157.5772 15.30613472208006
YARILO 2                
1 46491U 20068F   24189.41955158  .00024367  00000+0  82158-3 0  9990
2 46491  97.8092 157.2228 0009304 206.7261 153.3501 15.30683166207914
LACUNASAT-3             
1 46492U 20068G   24189.86248648  .00029008  00000+0  91226-3 0  9992
2 46492  97.8084 158.6730 0008954 199.0505 161.0403 15.32889314208030
